#dP2022  2  3  0  0  0.00000000      96 __u+U ITR00 FIT  IAC
## 2195 345600.00000000   900.00000000 59613 0.0000000000000
+  125   C01C02C03C04C05C06C07C08C09C10C11C12C13C14C16C19C20
+        C21C22C23C24C25C26C27C28C29C30C32C33C34C35C36C37C38
+        C39C40C41C42C43C44C45C46C60E01E02E03E04E05E07E08E09
+        E11E12E13E14E15E18E19E21E24E25E26E27E30E31E33E36G01
+        G02G03G04G05G06G07G08G09G10G11G12G13G14G15G16G17G18
+        G19G20G21G22G23G24G25G26G27G28G29G30G31G32J01J02J03
+        R01R02R03R04R05R06R07R08R09R10R11R12R13R14R15R17R18
+        R19R20R21R22R23R24  0  0  0  0  0  0  0  0  0  0  0
++        15 14 15 15 14  9  9  9  8  9  8  9  8  8  9  7  7
++         6  7  7  7  7  7  7  7  7  7  7  7  7  7  8  7  8
++         8  8  7  7  7  7  8  7 15  4  4  4  4  4  5  5  4
++         4  5  4  5  4  4  4  4  4  5  4  4  5  4  5  4  4
++         4  4  4  4  4  4  4  4  3  4  4  4  4  4  4  3  4
++         3  4  3  4  4  3  4  4  4  4  4  4  4  3  8  8  8
++         7  5  5  6  6 13  6  6  6 13  8  6  7  6  6  6  6
++         7  7  6  8 13  6  0  0  0  0  0  0  0  0  0  0  0
%c M  cc GPS ccc cccc cccc cccc cccc ccccc ccccc ccccc ccccc
%c cc cc ccc ccc cccc cccc cccc cccc ccccc ccccc ccccc ccccc
%f  0.0000000  0.000000000  0.00000000000  0.000000000000000
%f  0.0000000  0.000000000  0.00000000000  0.000000000000000
%i    0    0    0    0      0      0      0      0         0
%i    0    0    0    0      0      0      0      0         0
/* INFORMATION & ANALYSIS CENTER (IAC)            RAPID DATA
/* S/V CLOCKS ARE ALIGNED TO GNSS TIME                      
/* G:C1WC2W R:C1PC2P E:C1XC5X C:C2IC6I J:C1CC2S             
/* PCV:IGS14_2194 OL/AL:FES2004  NONE     YN ORB:CoN CLK:CoN
*  2022 02 03  8 30  0.00000000
PC01 -34374.486777  24458.842751   -168.497953   -168.737130
PC02   4410.230401  41865.390131  -1217.801416    650.082689
PC03 -14751.388619  39464.908130  -1042.805510    723.642803
PC04 -39642.943609  14417.056406     86.855436   -356.727377
PC05  21867.599400  35991.416166  -1414.252968   -496.168067
PC06  -9579.036715  40365.241554  -6847.220857    -13.963110
PC07  -4644.627911  27526.733722  31619.262524     -6.956984
PC08 -19306.120648  26238.108469 -26831.727740    107.257010
PC09  -4399.071959  41585.850607   3015.176332   -490.168457
PC10   3334.263959  30128.917896  29713.621889    139.854170
PC11  10868.223551  16625.543126 -19543.486909   -231.222592
PC12    353.311011  27420.438297  -5157.414247   -435.804453
PC13 -11758.037869  27071.743279 -30089.647758   -127.779142
PC14  22153.314753  16947.934982  -1498.243202    459.486242
PC16 -10195.845417  39836.793203  -8615.934579     72.984320
PC19 -24518.333332 -10739.458419  -7843.506914    902.059411
PC20 -17321.607489 -19903.115452   9066.646158   -815.619946
PC21   -730.016878  17685.622249 -21560.254399   -960.970057
PC22 -17777.294724   5022.938183 -20907.860336   -957.969004
PC23  24994.982407 -12324.228829  -1358.156892   -968.898304
PC24   7434.316983  14500.046777  22636.651966   -943.859150
PC25  23725.731306    252.933773  14659.532099   -784.972368
PC26 -10773.575964  18994.308039  17382.242881    784.457712
PC27   5562.487793 -27107.697067  -3698.258475    671.492885
PC28  14536.888662 -14958.545400 -18533.549810     28.347207
PC29 -15304.329597  -5742.293847  22614.065233    510.077760
PC30  -7208.132154 -23726.409134  12822.355901    492.556690
PC32    692.694911 -17675.461556  21598.205796   -962.138051
PC33  24602.434517  10635.976398   7796.044734   -955.557717
PC34   7764.619415  23095.215212 -13586.789541   -477.443776
PC35 -14285.496328  14707.623124  18909.114309    122.485517
PC36 -23497.105731  -1162.337143 -15000.676963   -889.653231
PC37  12232.432877 -18687.089088 -16705.762253   -962.108073
PC38 -23872.572944  27647.253646 -21137.848409    208.752851
PC39 -11480.759581  37748.244196 -14596.975696     34.740001
PC40  -7389.534035  22319.359312  34996.141407    241.182777
PC41  18097.338542  -4781.011592  20746.120227   -931.479271
PC42  16686.214162  20079.567310  -9828.810675   -929.833669
PC43  15268.284465   6518.662707 -22431.978573   -944.048015
PC44  -4745.163635  27206.611603   3858.520636    552.586995
PC45 -24932.624866  12470.095773   1569.721774    670.677859
PC46  -8919.626861 -13645.096576 -22656.356830   -148.649383
PC60   7302.589722  41523.932003   -148.327638     -0.270326
PE01 -14037.956482  13871.836480  22062.182026   -571.862084
PE02  13835.153241 -13942.579404 -22141.590240    277.805847
PE03   4940.690479 -21633.483464  19581.774616   -523.817828
PE04  10015.796078  27550.172132  -4086.100798   -956.573885
PE05  17276.380774  -2892.198162  23860.419000   -212.592022
PE07 -19388.398942 -17283.048878 -14191.004850   -635.148061
PE08 -10427.613638 -27450.143275   3702.511576   5861.559813
PE09  19422.707665  17062.176449  14425.444426   5373.140688
PE11  14944.227340   6597.535451 -24687.025905   4537.756623
PE12   -730.051165  22885.371158 -18741.700720   4778.134230
PE13 -14481.956300  -7203.392236  24799.485371    426.219689
PE14 -11516.068494  13413.570059  17488.260853  -1732.601900
PE15    837.466189 -22945.882969  18696.136678    765.532663
PE18  19052.600749  -6652.488397 -24244.518920  -1836.760736
PE19  -6732.131843  19782.989337 -20958.398777    493.464911
PE21 -27897.572709   3981.425803   9074.546265   -714.982582
PE24  25775.170396   9596.910410  10882.296137  -1370.150205
PE25  27976.682403  -3825.364843  -8854.520483   -562.383124
PE26 -21361.271285  13460.522771  15459.270421   -762.076432
PE27 -26513.280569  -8787.467717  -9827.657027   -223.898844
PE30  -8253.195045 -16530.972806 -23143.170835   -243.794401
PE31   9520.125775  16289.529062  22807.058447   -491.651839
PE33 -15615.186558  25090.001723  -1573.683352   -459.781110
PE36  21207.411905 -12697.460171 -16283.680366   -327.050722
PG01 -12444.378492  21714.626864  -8624.605282    440.941908
PG02  19961.881601 -12958.855558 -11252.876359   -650.120082
PG03  -6021.941940  13949.362680 -21879.590483   -104.818454
PG04  -2321.707612  23385.448601 -12293.470227   -191.697826
PG05  21234.390365  -6562.366161  14492.259323    -70.125525
PG06  15950.580938   3130.816688 -20950.849015    189.939126
PG07   2147.975200  18176.618078  19452.549430    307.380557
PG08  -9151.877610  15220.724257  19614.889799    -54.675909
PG09   7115.984281  25492.282723  -2069.164900   -355.685901
PG10 -21769.640520 -11781.354567  10161.481835   -310.273547
PG11  21658.749485  -9337.758551 -12205.281528   -101.885622
PG12   9739.793077 -12511.991069 -21550.247512   -165.393601
PG13  13711.368008  -7074.567269  21447.250596    255.600986
PG14  20787.669016  12983.975548  10311.377327    -79.234940
PG15   7463.404922 -16868.868888  18593.398140    -86.695058
PG16 -23843.094372   1015.585674  11872.340790   -464.495514
PG17  12999.210936  19778.802521 -11571.500537    570.086865
PG18  -1496.714886 -17882.473636  19543.658313    248.029710
PG19  15061.524875  12734.933865 -18135.213005    113.989258
PG20  25785.247299  -2295.250217   5310.158997    516.874328
PG21 -17510.587942  19391.901745   2782.932772    157.372697
PG22 -15709.071529  -9399.070279 -18914.322335    207.999562
PG23 -12081.120075 -15090.442325  18244.160330      4.880409
PG24  13776.494060 -22180.964942  -3732.674607    276.064071
PG25  -4406.268993 -16060.752320 -21029.406268    280.172011
PG26 -26301.445165  -4747.477135   -566.636608    180.007535
PG27 -14467.342100   3449.791812  21821.493095    101.975697
PG28  24300.846074  10053.717032   3209.755324    408.542237
PG29  -3032.684823 -25957.181953  -4619.873537   -475.494520
PG30  10457.205507  11879.189409  21387.929173   -511.012401
PG31 -18123.054835  -1169.626516 -19657.780944   -162.971845
PG32 -15839.519146 -15656.681732 -14489.463996    -61.161885
PJ01 -22724.561236  17776.992740 -26183.935888    265.617565
PJ02 -30789.313056  22614.990739  22757.182172     -1.130315
PJ03 -28959.359464  27291.120083  19113.264066     -0.384766
PR01  -8694.194509 -18734.715300  14964.578359      7.081802
PR02 -18733.037504 -16841.169335  -4189.617270    508.523729
PR03 -16614.581982  -4367.068349 -18837.291438     50.920255
PR04  -5041.924936  10158.110606 -22820.262893    126.160544
PR05   9119.629768  19155.267607 -14131.729912     87.054848
PR06  19434.805827  15647.003618   5230.629102    -30.596257
PR07  16231.937898   3643.237546  19355.214502     31.293684
PR08   5016.897365 -10374.305000  22814.611729    -63.399201
PR09  18043.948461   4155.158067  17591.138543     37.484498
PR10  24751.047082  -4771.842971   3614.367436    -79.470331
PR11  18002.713635 -11590.186377 -13865.599367     46.207720
PR12   -244.265646 -11231.301330 -22880.162714     17.070376
PR13 -17059.209040  -4598.753525 -18422.417567    -17.823079
PR14 -24848.581688   5288.160683  -2230.915439     73.935235
PR15 -17549.794786  11585.152159  14454.381840     98.461577
PR17 -12141.012414   7040.056409  21322.065340    498.297215
PR18 -10762.114976  21058.986956   9505.484125    105.988118
PR19  -4964.622302  24192.900852  -6374.666338   -176.801228
PR20   5969.406886  12321.424833 -21497.828923    -64.236707
PR21  12231.199598  -8423.445490 -20727.687681   -275.093748
PR22  10625.277279 -21600.938830  -8596.125482   -162.273447
PR23   1228.744274 -22446.838792  12058.122866    -29.021708
PR24  -6995.375752 -11684.626303  21588.110078     78.518918
EOF
